[{"OBJECT_NAME":"AETHER-5","OBJECT_ID":"2026-004P","EPOCH":"2026-03-09T23:33:59.298912","MEAN_MOTION":14.87880363,"ECCENTRICITY":0.00069004,"INCLINATION":97.8032,"RA_OF_ASC_NODE":69.1988,"ARG_OF_PERICENTER":94.3564,"MEAN_ANOMALY":265.8441,"EPHEMERIS_TYPE":0,"CLASSIFICATION_TYPE":"U","NORAD_CAT_ID":67376,"ELEMENT_SET_NO":999,"REV_AT_EPOCH":854,"BSTAR":0.00028631782,"MEAN_MOTION_DOT":2.567e-5,"MEAN_MOTION_DDOT":0},{"OBJECT_NAME":"SL-14 R\/B","OBJECT_ID":"1983-099B","EPOCH":"2026-03-09T17:04:20.967456","MEAN_MOTION":14.8623395,"ECCENTRICITY":0.00204236,"INCLINATION":82.5407,"RA_OF_ASC_NODE":142.538,"ARG_OF_PERICENTER":134.9475,"MEAN_ANOMALY":225.3402,"EPHEMERIS_TYPE":0,"CLASSIFICATION_TYPE":"U","NORAD_CAT_ID":14373,"ELEMENT_SET_NO":999,"REV_AT_EPOCH":27262,"BSTAR":6.6267087e-5,"MEAN_MOTION_DOT":6.09e-6,"MEAN_MOTION_DDOT":0}]
